MANDRAKE 2 BAKER        
1 48908U 21059AF  26188.50262764  .00020894  00000+0  25342-3 0  9994
2 48908  97.7002  22.8649 0002212 257.3907 102.7102 15.60658567280469
PACE-1                  
1 48909U 21059AG  26187.07230236  .00126204  00000+0  57119-3 0  9994
2 48909  97.6734  27.3937 0002866 201.5313 158.5836 15.83608652280781
YAM-3                   
1 48915U 21059AN  26187.77314767  .00010023  00000+0  18700-3 0  9994
2 48915  97.6998  16.0140 0003739 286.3013  73.7826 15.49009629280024
FARADAY_PHOENIX         
1 48924U 21059AX  26187.95963162  .00148959  00000+0  64139-3 0  9990
2 48924  97.6781  28.2753 0005244 222.1854 137.9012 15.84594264280789
DEMO8 (TENZING)         
1 48951U 21059CA  26187.99233349  .00015424  00000+0  22487-3 0  9991
2 48951  97.7022  22.9295 0005334 268.1981  91.8662 15.55788133280384
FENGYUN 3E              
1 49008U 21062A   26188.84849505  .00000065  00000+0  51398-4 0  9990
2 49008  98.7501 192.0261 0002512  52.0138 308.1265 14.19906013259514
ISS (NAUKA)             
1 49044U 21066A   26188.50835634  .00005806  00000+0  11369-3 0  9996
2 49044  51.6304 199.5144 0006687 267.6545  92.3678 15.48933372609664
STARLINK-3100           
1 49144U 21082Q   26188.80263016  .00000331  00000+0  35534-4 0  9996
2 49144  70.0001 351.5992 0003122 269.4819  90.5982 14.98328052263975
CUTE                    
1 49263U 21088D   26188.23006743  .00505644  12215-3  75030-3 0  9999
2 49263  97.4041 289.5988 0001469 300.4812  59.6324 16.04923388265756
2021-091B               
1 49316U 21091B   26188.88186223  .00002725  00000+0  13459-3 0  9999
2 49316  97.4481  16.1432 0012572 335.7110  24.3530 15.18658825262121
SDGSAT 1                
1 49387U 21100A   26188.84709362  .00000973  00000+0  49261-4 0  9993
2 49387  97.2622 235.0069 0008964 188.3087 171.8001 15.19213115259056
TEIKYOSAT-4 (OORURI)    
1 49396U 21102B   26188.66970115  .00001466  00000+0  94970-4 0  9996
2 49396  97.3663 217.3567 0011016 216.0060 144.0429 15.09581259255812
Z-SAT                   
1 49399U 21102E   26188.89173677  .00003231  00000+0  15969-3 0  9994
2 49399  97.3319 223.5865 0016875 168.9823 191.1785 15.18426260256586
HIBARI                  
1 49400U 21102F   26188.71219700  .00006875  00000+0  22329-3 0  9991
2 49400  97.3226 234.3853 0013159 124.2457 236.0034 15.32166470257333
KOSEN-1                 
1 49402U 21102H   26188.06319665  .00006147  00000+0  23304-3 0  9998
2 49402  97.3175 229.8359 0015082 133.3577 226.8921 15.27132913257059
GLOBAL-14               
1 49469U 21106A   26188.62664382  .00017359  00000+0  28867-3 0  9992
2 49469  42.0027 169.5202 0016341 172.3093 187.8005 15.51556571261306
GAOFEN-3 02             
1 49495U 21109A   26188.86227046 -.00000185  00000+0 -42838-4 0  9998
2 49495  98.4094 196.6652 0001517 307.9074  52.1978 14.42218984243291
GLOBAL-12               
1 49772U 21115BA  26188.32942991  .00027653  00000+0  41160-3 0  9990
2 49772  53.1957 307.6011 0002603  70.1313 289.9979 15.54947504259031
GLOBAL-13               
1 49773U 21115BB  26188.67149566  .00014598  00000+0  29346-3 0  9992
2 49773  53.1978 317.1540 0001463 148.3296 211.7801 15.46900142258932
GLOBAL-17               
1 49949U 21120A   26188.67069821  .00020546  00000+0  31893-3 0  9998
2 49949  41.9951 287.1403 0013973  33.0698 327.1018 15.53418345258087
GLOBAL-16               
1 49950U 21120B   26188.71236655  .00017719  00000+0  29879-3 0  9995
2 49950  41.9954 291.0154 0012242  22.7157 337.4226 15.51218502258033
XW-3 (CAS-9)            
1 50466U 21131B   26188.88022925  .00000272  00000+0  97662-4 0  9994
2 50466  98.4980 281.1589 0004988  48.5653 311.5964 14.41377368238090
ION SCV-004             
1 50993U 22002K   26188.69808988  .00003648  00000+0  12562-3 0  9992
2 50993  97.2820 245.9725 0005552 282.0701  77.9918 15.30658933248432
ETV-A1                  
1 51060U 22002CE  26188.85945559  .00007410  00000+0  18098-3 0  9993
2 51060  97.2866 255.1098 0003449 262.3916  97.6939 15.41126111249024
BRO-5                   
1 51061U 22002CF  26188.87258826  .00020504  00000+0  38579-3 0  9995
2 51061  97.2983 262.7399 0004622 231.5190 128.5646 15.48570053249450
LUDI TANCE 1-01A (L-SA*)
1 51284U 22007A   26188.88703328  .00000485  00000+0  58173-4 0  9999
2 51284  97.8102 196.0128 0001616  90.3556 269.7845 14.88413652241558
LUDI TANCE 1-01B (L-SA*)
1 51822U 22018A   26188.85339833  .00000007  00000+0  66127-5 0  9991
2 51822  97.8113 195.9774 0001619  90.8702 269.2700 14.88407598236780
2022-023F               
1 51951U 22023F   26188.83056083  .00005133  00000+0  21045-3 0  9994
2 51951  63.4442 203.3042 0132451 341.6856  17.9509 15.17887512240843
