OBJECT_NAME,OBJECT_ID,EPOCH,MEAN_MOTION,ECCENTRICITY,INCLINATION,RA_OF_ASC_NODE,ARG_OF_PERICENTER,MEAN_ANOMALY,EPHEMERIS_TYPE,CLASSIFICATION_TYPE,NORAD_CAT_ID,ELEMENT_SET_NO,REV_AT_EPOCH,BSTAR,MEAN_MOTION_DOT,MEAN_MOTION_DDOT
MANDRAKE 2 BAKER,2021-059AF,2026-07-07T12:03:47.028096,15.60658567,.00022128,97.7002,22.8649,257.3907,102.7102,0,U,48908,999,28046,.25342392E-3,.20894E-3,0
PACE-1,2021-059AG,2026-07-06T01:44:06.923904,15.83608652,.0002866,97.6734,27.3937,201.5313,158.5836,0,U,48909,999,28078,.57119E-3,.126204E-2,0
YAM-3,2021-059AN,2026-07-06T18:33:19.958688,15.49009629,.00037399,97.6998,16.0140,286.3013,73.7826,0,U,48915,999,28002,.18699957E-3,.10023E-3,0
FARADAY_PHOENIX,2021-059AX,2026-07-06T23:01:52.171968,15.84594264,.0005244,97.6781,28.2753,222.1854,137.9012,0,U,48924,999,28078,.6413851E-3,.148959E-2,0
DEMO8 (TENZING),2021-059CA,2026-07-06T23:48:57.613536,15.55788133,.0005334,97.7022,22.9295,268.1981,91.8662,0,U,48951,999,28038,.22487485E-3,.15424E-3,0
FENGYUN 3E,2021-062A,2026-07-07T20:21:49.972320,14.19906013,.0002512,98.7501,192.0261,52.0138,308.1265,0,U,49008,999,25951,.51398E-4,.65E-6,0
ISS (NAUKA),2021-066A,2026-07-07T12:12:01.987776,15.48933372,.00066874,51.6304,199.5144,267.6545,92.3678,0,U,49044,999,60966,.11369272E-3,.5806E-4,0
STARLINK-3100,2021-082Q,2026-07-07T19:15:47.245824,14.98328052,.0003122,70.0001,351.5992,269.4819,90.5982,0,U,49144,999,26397,.35534E-4,.331E-5,0
CUTE,2021-088D,2026-07-07T05:31:17.825952,16.04923388,.00014696,97.4041,289.5988,300.4812,59.6324,0,U,49263,999,26575,.75030128E-3,.505644E-2,.12214957E-3
2021-091B,2021-091B,2026-07-07T21:09:52.896672,15.18658825,.0012572,97.4481,16.1432,335.7110,24.3530,0,U,49316,999,26212,.13459E-3,.2725E-4,0
SDGSAT 1,2021-100A,2026-07-07T20:19:48.888768,15.19213115,.0008964,97.2622,235.0069,188.3087,171.8001,0,U,49387,999,25905,.49261E-4,.973E-5,0
TEIKYOSAT-4 (OORURI),2021-102B,2026-07-07T16:04:22.179360,15.09581259,.0011016,97.3663,217.3567,216.0060,144.0429,0,U,49396,999,25581,.9497E-4,.1466E-4,0
Z-SAT,2021-102E,2026-07-07T21:24:06.056928,15.18426260,.0016875,97.3319,223.5865,168.9823,191.1785,0,U,49399,999,25658,.15969E-3,.3231E-4,0
HIBARI,2021-102F,2026-07-07T17:05:33.820800,15.32166470,.0013159,97.3226,234.3853,124.2457,236.0034,0,U,49400,999,25733,.22329E-3,.6875E-4,0
KOSEN-1,2021-102H,2026-07-07T01:31:00.190560,15.27132913,.00150823,97.3175,229.8359,133.3577,226.8921,0,U,49402,999,25705,.23303826E-3,.6147E-4,0
GLOBAL-14,2021-106A,2026-07-07T15:02:22.026048,15.51556571,.0016341,42.0027,169.5202,172.3093,187.8005,0,U,49469,999,26130,.28867E-3,.17359E-3,0
GAOFEN-3 02,2021-109A,2026-07-07T20:41:40.167744,14.42218984,.0001517,98.4094,196.6652,307.9074,52.1978,0,U,49495,999,24329,-.42838E-4,-.185E-5,0
GLOBAL-12,2021-115BA,2026-07-07T07:54:22.744224,15.54947504,.00026035,53.1957,307.6011,70.1313,289.9979,0,U,49772,999,25903,.41159956E-3,.27653E-3,0
GLOBAL-13,2021-115BB,2026-07-07T16:06:57.225024,15.46900142,.0001463,53.1978,317.1540,148.3296,211.7801,0,U,49773,999,25893,.29346E-3,.14598E-3,0
GLOBAL-17,2021-120A,2026-07-07T16:05:48.325344,15.53418345,.0013973,41.9951,287.1403,33.0698,327.1018,0,U,49949,999,25808,.31893E-3,.20546E-3,0
GLOBAL-16,2021-120B,2026-07-07T17:05:48.469920,15.51218502,.0012242,41.9954,291.0154,22.7157,337.4226,0,U,49950,999,25803,.29879E-3,.17719E-3,0
XW-3 (CAS-9),2021-131B,2026-07-07T21:07:31.807200,14.41377368,.0004988,98.4980,281.1589,48.5653,311.5964,0,U,50466,999,23809,.97662E-4,.272E-5,0
ION SCV-004,2022-002K,2026-07-07T16:45:14.965632,15.30658933,.0005552,97.2820,245.9725,282.0701,77.9918,0,U,50993,999,24843,.12562E-3,.3648E-4,0
ETV-A1,2022-002CE,2026-07-07T20:37:36.962976,15.41126111,.0003449,97.2866,255.1098,262.3916,97.6939,0,U,51060,999,24902,.18098E-3,.741E-4,0
BRO-5,2022-002CF,2026-07-07T20:56:31.625664,15.48570053,.0004622,97.2983,262.7399,231.5190,128.5646,0,U,51061,999,24945,.38579E-3,.20504E-3,0
LUDI TANCE 1-01A (L-SAR 01A),2022-007A,2026-07-07T21:17:19.675392,14.88413652,.0001616,97.8102,196.0128,90.3556,269.7845,0,U,51284,999,24155,.58173E-4,.485E-5,0
LUDI TANCE 1-01B (L-SAR 01B),2022-018A,2026-07-07T20:28:53.615712,14.88407598,.0001619,97.8113,195.9774,90.8702,269.2700,0,U,51822,999,23678,.66127E-5,.7E-7,0
2022-023F,2022-023F,2026-07-07T19:56:00.455712,15.17887512,.0132451,63.4442,203.3042,341.6856,17.9509,0,U,51951,999,24084,.21045E-3,.5133E-4,0
